[
    {
        "Altitude(m)": 571559.3743109535,
        "Argument of Periapsis(deg)": -0.037671934638287344,
        "Eccentricity": 0.0,
        "Inclination(deg)": 97.0,
        "Latitude(deg)": -21.37761736111033,
        "Longitude(deg)": -11.188669736775969,
        "Mean Anomaly(deg)": -21.269461218020847,
        "RAAN(deg)": 90.00991175603086,
        "Satellite Name": "Starlink Shell 3 1803",
        "Satellite Number": 1803,
        "Semi-Major Axis(m)": 6938478.169268562,
        "Time(s)": 950
    },
    {
        "Altitude(m)": 571351.7736193837,
        "Argument of Periapsis(deg)": -0.03806848131869037,
        "Eccentricity": 0.0,
        "Inclination(deg)": 97.0,
        "Latitude(deg)": -20.755423077344773,
        "Longitude(deg)": -11.317697746091108,
        "Mean Anomaly(deg)": -20.64398502031579,
        "RAAN(deg)": 90.01001609030487,
        "Satellite Name": "Starlink Shell 3 1803",
        "Satellite Number": 1803,
        "Semi-Major Axis(m)": 6938478.169268562,
        "Time(s)": 960
    },
    {
        "Altitude(m)": 571147.0490615384,
        "Argument of Periapsis(deg)": -0.0384650279990934,
        "Eccentricity": 0.0,
        "Inclination(deg)": 97.0,
        "Latitude(deg)": -20.13311425876375,
        "Longitude(deg)": -11.446019453411584,
        "Mean Anomaly(deg)": -20.018508822610716,
        "RAAN(deg)": 90.01012042457886,
        "Satellite Name": "Starlink Shell 3 1803",
        "Satellite Number": 1803,
        "Semi-Major Axis(m)": 6938478.169268562,
        "Time(s)": 970
    },
    {
        "Altitude(m)": 570945.2718696032,
        "Argument of Periapsis(deg)": -0.03886157467949641,
        "Eccentricity": 0.0,
        "Inclination(deg)": 97.0,
        "Latitude(deg)": -19.510694002872793,
        "Longitude(deg)": -11.57366352518238,
        "Mean Anomaly(deg)": -19.39303262490576,
        "RAAN(deg)": 90.01022475885287,
        "Satellite Name": "Starlink Shell 3 1803",
        "Satellite Number": 1803,
        "Semi-Major Axis(m)": 6938478.169268562,
        "Time(s)": 980
    },
    {
        "Altitude(m)": 570746.5117697916,
        "Argument of Periapsis(deg)": -0.03925812135989944,
        "Eccentricity": 0.0,
        "Inclination(deg)": 97.0,
        "Latitude(deg)": -18.88816539052487,
        "Longitude(deg)": -11.700657372368996,
        "Mean Anomaly(deg)": -18.767556427200716,
        "RAAN(deg)": 90.0103290931269,
        "Satellite Name": "Starlink Shell 3 1803",
        "Satellite Number": 1803,
        "Semi-Major Axis(m)": 6938478.169268562,
        "Time(s)": 990
    }
]